{"type": "FeatureCollection", "features": [ {"type": "Feature", "properties": {"norad_id": 66506, "name": "STARLINK-34765", "group": "last-30-days", "lat": 2.858250114492337, "lon": -170.09444538206623, "alt_km": 344.015507548138, "timestamp": "2025-12-02T07:10:07.867092+00:00", "meta": {"OBJECT_NAME": "STARLINK-34765", "OBJECT_ID": "2025-263X", "EPOCH": "2025-12-01T20:00:01.999008", "MEAN_MOTION": 15.74992471, "ECCENTRICITY": 0.0001567, "INCLINATION": 42.9986, "RA_OF_ASC_NODE": 189.658, "ARG_OF_PERICENTER": 258.4845, "MEAN_ANOMALY": 343.9776, "EPHEMERIS_TYPE": 0, "CLASSIFICATION_TYPE": "U", "NORAD_CAT_ID": 66506, "ELEMENT_SET_NO": 999, "REV_AT_EPOCH": 388, "BSTAR": 0.00062599, "MEAN_MOTION_DOT": 0.0009659, "MEAN_MOTION_DDOT": 0}, "tle": {"line1": "1 66506U 25263X   25335.83335647  .00096590  00000+0  62599-3 0  9990", "line2": "2 66506  42.9986 189.6580 0001567 258.4845 343.9776 15.74992471  3882"}}, "geometry": {"type": "Point", "coordinates": [-170.09444538206623, 2.858250114492337]}}, {"type": "Feature", "properties": {"norad_id": 66507, "name": "STARLINK-34767", "group": "last-30-days", "lat": 5.453010641514872, "lon": -167.2966992238954, "alt_km": 343.622590904125, "timestamp": "2025-12-02T07:10:07.867114+00:00", "meta": {"OBJECT_NAME": "STARLINK-34767", "OBJECT_ID": "2025-263Y", "EPOCH": "2025-12-01T20:00:01.999008", "MEAN_MOTION": 15.75011383, "ECCENTRICITY": 0.0001561, "INCLINATION": 42.9986, "RA_OF_ASC_NODE": 189.647, "ARG_OF_PERICENTER": 267.4235, "MEAN_ANOMALY": 338.8565, "EPHEMERIS_TYPE": 0, "CLASSIFICATION_TYPE": "U", "NORAD_CAT_ID": 66507, "ELEMENT_SET_NO": 999, "REV_AT_EPOCH": 388, "BSTAR": 0.00035229, "MEAN_MOTION_DOT": 0.00053917, "MEAN_MOTION_DDOT": 0}, "tle": {"line1": "1 66507U 25263Y   25335.83335647  .00053917  00000+0  35229-3 0  9997", "line2": "2 66507  42.9986 189.6470 0001561 267.4235 338.8565 15.75011383  3882"}}, "geometry": {"type": "Point", "coordinates": [-167.2966992238954, 5.453010641514872]}}, {"type": "Feature", "properties": {"norad_id": 66508, "name": "STARLINK-35608", "group": "last-30-days", "lat": 9.361286906052474, "lon": -163.00005312202745, "alt_km": 343.1610691962651, "timestamp": "2025-12-02T07:10:07.867133+00:00", "meta": {"OBJECT_NAME": "STARLINK-35608", "OBJECT_ID": "2025-263Z", "EPOCH": "2025-12-01T20:00:01.999008", "MEAN_MOTION": 15.75022118, "ECCENTRICITY": 0.0001588, "INCLINATION": 42.9987, "RA_OF_ASC_NODE": 189.6334, "ARG_OF_PERICENTER": 264.9798, "MEAN_ANOMALY": 347.0655, "EPHEMERIS_TYPE": 0, "CLASSIFICATION_TYPE": "U", "NORAD_CAT_ID": 66508, "ELEMENT_SET_NO": 999, "REV_AT_EPOCH": 388, "BSTAR": 0.00040001, "MEAN_MOTION_DOT": 0.00061371, "MEAN_MOTION_DDOT": 0}, "tle": {"line1": "1 66508U 25263Z   25335.83335647  .00061371  00000+0  40001-3 0  9995", "line2": "2 66508  42.9987 189.6334 0001588 264.9798 347.0655 15.75022118  3888"}}, "geometry": {"type": "Point", "coordinates": [-163.00005312202745, 9.361286906052474]}}, {"type": "Feature", "properties": {"norad_id": 66509, "name": "STARLINK-35598", "group": "last-30-days", "lat": 14.44495139948904, "lon": -157.1636959348323, "alt_km": 342.5229164412158, "timestamp": "2025-12-02T07:10:07.867151+00:00", "meta": {"OBJECT_NAME": "STARLINK-35598", "OBJECT_ID": "2025-263AA", "EPOCH": "2025-12-01T20:00:01.999008", "MEAN_MOTION": 15.75058182, "ECCENTRICITY": 0.0001558, "INCLINATION": 42.9985, "RA_OF_ASC_NODE": 189.6118, "ARG_OF_PERICENTER": 272.5785, "MEAN_ANOMALY": 347.131, "EPHEMERIS_TYPE": 0, "CLASSIFICATION_TYPE": "U", "NORAD_CAT_ID": 66509, "ELEMENT_SET_NO": 999, "REV_AT_EPOCH": 388, "BSTAR": -0.000176, "MEAN_MOTION_DOT": -0.00027447, "MEAN_MOTION_DDOT": 0}, "tle": {"line1": "1 66509U 25263AA  25335.83335647 -.00027447  00000+0 -17600-3 0  9993", "line2": "2 66509  42.9985 189.6118 0001558 272.5785 347.1310 15.75058182  3884"}}, "geometry": {"type": "Point", "coordinates": [-157.1636959348323, 14.44495139948904]}}, {"type": "Feature", "properties": {"norad_id": 66510, "name": "STARLINK-35600", "group": "last-30-days", "lat": 10.644297098302332, "lon": -161.55972179153196, "alt_km": 343.0181450187538, "timestamp": "2025-12-02T07:10:07.867169+00:00", "meta": {"OBJECT_NAME": "STARLINK-35600", "OBJECT_ID": "2025-263AB", "EPOCH": "2025-12-01T20:00:01.999008", "MEAN_MOTION": 15.7501419, "ECCENTRICITY": 0.0001901, "INCLINATION": 42.9986, "RA_OF_ASC_NODE": 189.6277, "ARG_OF_PERICENTER": 264.7272, "MEAN_ANOMALY": 349.2212, "EPHEMERIS_TYPE": 0, "CLASSIFICATION_TYPE": "U", "NORAD_CAT_ID": 66510, "ELEMENT_SET_NO": 999, "REV_AT_EPOCH": 388, "BSTAR": 0.00059098, "MEAN_MOTION_DOT": 0.00091192, "MEAN_MOTION_DDOT": 0}, "tle": {"line1": "1 66510U 25263AB  25335.83335647  .00091192  00000+0  59098-3 0  9998", "line2": "2 66510  42.9986 189.6277 0001901 264.7272 349.2212 15.75014190  3884"}}, "geometry": {"type": "Point", "coordinates": [-161.55972179153196, 10.644297098302332]}}, {"type": "Feature", "properties": {"norad_id": 66511, "name": "STARLINK-35444", "group": "last-30-days", "lat": 13.186926976015869, "lon": -158.64290700469792, "alt_km": 342.7020376758519, "timestamp": "2025-12-02T07:10:07.867187+00:00", "meta": {"OBJECT_NAME": "STARLINK-35444", "OBJECT_ID": "2025-263AC", "EPOCH": "2025-12-01T20:00:01.999008", "MEAN_MOTION": 15.75056817, "ECCENTRICITY": 0.0001716, "INCLINATION": 42.9984, "RA_OF_ASC_NODE": 189.6171, "ARG_OF_PERICENTER": 271.2989, "MEAN_ANOMALY": 346.489, "EPHEMERIS_TYPE": 0, "CLASSIFICATION_TYPE": "U", "NORAD_CAT_ID": 66511, "ELEMENT_SET_NO": 999, "REV_AT_EPOCH": 388, "BSTAR": -9.2357e-05, "MEAN_MOTION_DOT": -0.00014651, "MEAN_MOTION_DDOT": 0}, "tle": {"line1": "1 66511U 25263AC  25335.83335647 -.00014651  00000+0 -92357-4 0  9992", "line2": "2 66511  42.9984 189.6171 0001716 271.2989 346.4890 15.75056817  3881"}}, "geometry": {"type": "Point", "coordinates": [-158.64290700469792, 13.186926976015869]}}, {"type": "Feature", "properties": {"norad_id": 66512, "name": "STARLINK-35366", "group": "last-30-days", "lat": 15.700511676352008, "lon": -155.65787883966428, "alt_km": 342.5858064035001, "timestamp": "2025-12-02T07:10:07.867209+00:00", "meta": {"OBJECT_NAME": "STARLINK-35366", "OBJECT_ID": "2025-263AD", "EPOCH": "2025-12-01T20:00:01.999008", "MEAN_MOTION": 15.75020329, "ECCENTRICITY": 0.0001584, "INCLINATION": 42.9986, "RA_OF_ASC_NODE": 189.6079, "ARG_OF_PERICENTER": 251.5704, "MEAN_ANOMALY": 10.0614, "EPHEMERIS_TYPE": 0, "CLASSIFICATION_TYPE": "U", "NORAD_CAT_ID": 66512, "ELEMENT_SET_NO": 999, "REV_AT_EPOCH": 388, "BSTAR": 0.00038396, "MEAN_MOTION_DOT": 0.00058866, "MEAN_MOTION_DDOT": 0}, "tle": {"line1": "1 66512U 25263AD  25335.83335647  .00058866  00000+0  38396-3 0  9999", "line2": "2 66512  42.9986 189.6079 0001584 251.5704  10.0614 15.75020329  3887"}}, "geometry": {"type": "Point", "coordinates": [-155.65787883966428, 15.700511676352008]}}, {"type": "Feature", "properties": {"norad_id": 66513, "name": "STARLINK-35692", "group": "last-30-days", "lat": 11.918967293367665, "lon": -160.10807125354953, "alt_km": 342.738238085225, "timestamp": "2025-12-02T07:10:07.867227+00:00", "meta": {"OBJECT_NAME": "STARLINK-35692", "OBJECT_ID": "2025-263AE", "EPOCH": "2025-12-01T20:00:01.999008", "MEAN_MOTION": 15.75049184, "ECCENTRICITY": 0.0001487, "INCLINATION": 42.9985, "RA_OF_ASC_NODE": 189.623, "ARG_OF_PERICENTER": 273.1453, "MEAN_ANOMALY": 342.7215, "EPHEMERIS_TYPE": 0, "CLASSIFICATION_TYPE": "U", "NORAD_CAT_ID": 66513, "ELEMENT_SET_NO": 999, "REV_AT_EPOCH": 388, "BSTAR": 8.9612e-05, "MEAN_MOTION_DOT": 0.00013315, "MEAN_MOTION_DDOT": 0}, "tle": {"line1": "1 66513U 25263AE  25335.83335647  .00013315  00000+0  89612-4 0  9998", "line2": "2 66513  42.9985 189.6230 0001487 273.1453 342.7215 15.75049184  3881"}}, "geometry": {"type": "Point", "coordinates": [-160.10807125354953, 11.918967293367665]}}, {"type": "Feature", "properties": {"norad_id": 66514, "name": "SENTINEL-6B", "group": "last-30-days", "lat": 65.64625733989755, "lon": -96.54026126557858, "alt_km": 1319.51971008074, "timestamp": "2025-12-02T07:10:07.867245+00:00", "meta": {"OBJECT_NAME": "SENTINEL-6B", "OBJECT_ID": "2025-264A", "EPOCH": "2025-12-01T19:31:31.024128", "MEAN_MOTION": 12.85877276, "ECCENTRICITY": 0.0011529, "INCLINATION": 66.0388, "RA_OF_ASC_NODE": 185.2519, "ARG_OF_PERICENTER": 268.8657, "MEAN_ANOMALY": 91.104, "EPHEMERIS_TYPE": 0, "CLASSIFICATION_TYPE": "U", "NORAD_CAT_ID": 66514, "ELEMENT_SET_NO": 999, "REV_AT_EPOCH": 188, "BSTAR": 0.00031232, "MEAN_MOTION_DOT": 1.5e-07, "MEAN_MOTION_DDOT": 0}, "tle": {"line1": "1 66514U 25264A   25335.81355352  .00000015  00000+0  31232-3 0  9990", "line2": "2 66514  66.0388 185.2519 0011529 268.8657  91.1040 12.85877276  1881"}}, "geometry": {"type": "Point", "coordinates": [-96.54026126557858, 65.64625733989755]}}, {"type": "Feature", "properties": {"norad_id": 66516, "name": "STARLINK-35924", "group": "last-30-days", "lat": 26.222319998173727, "lon": 148.0332715603481, "alt_km": 340.6825852489237, "timestamp": "2025-12-02T07:10:07.867267+00:00", "meta": {"OBJECT_NAME": "STARLINK-35924", "OBJECT_ID": "2025-265A", "EPOCH": "2025-12-01T20:00:01.999008", "MEAN_MOTION": 15.75039017, "ECCENTRICITY": 0.0001417, "INCLINATION": 42.9995, "RA_OF_ASC_NODE": 118.9473, "ARG_OF_PERICENTER": 285.5115, "MEAN_ANOMALY": 353.128, "EPHEMERIS_TYPE": 0, "CLASSIFICATION_TYPE": "U", "NORAD_CAT_ID": 66516, "ELEMENT_SET_NO": 999, "REV_AT_EPOCH": 322, "BSTAR": 4.5627e-05, "MEAN_MOTION_DOT": 6.537e-05, "MEAN_MOTION_DDOT": 0}, "tle": {"line1": "1 66516U 25265A   25335.83335647  .00006537  00000+0  45627-4 0  9999", "line2": "2 66516  42.9995 118.9473 0001417 285.5115 353.1280 15.75039017  3224"}}, "geometry": {"type": "Point", "coordinates": [148.0332715603481, 26.222319998173727]}}]}